ONEWEB-0703             
1 56724U 23068Q   25231.76697689  .00000092  00000+0  21037-3 0  9990
2 56724  87.9063 319.3474 0002595  76.1110 284.0309 13.15546283109629
ONEWEB-0721             
1 56725U 23068R   25231.93789234 -.00000042  00000+0 -13490-3 0  9999
2 56725  86.6857 181.5327 0002010  79.1456 280.9903 13.22442669118122
ONEWEB-0015             
1 61594U 24188A   25232.31870074 -.00000151  00000+0 -46070-3 0  9990
2 61594  87.8789  81.0594 0002258  95.3412 264.7973 13.11418146 43108
ONEWEB-0687             
1 61595U 24188B   25232.29574192  .00000056  00000+0  11066-3 0  9999
2 61595  87.9020  65.7841 0001842 108.5405 251.5927 13.17648826 44569
ONEWEB-0688             
1 61596U 24188C   25232.24849197 -.00000002  00000+0 -37265-4 0  9998
2 61596  87.9019  65.7935 0002919 104.8010 255.3445 13.17648820 44335
ONEWEB-0689             
1 61597U 24188D   25231.58963793  .00000143  00000+0  36795-3 0  9994
2 61597  87.8748  81.1674 0001517  95.0539 265.0762 13.11413615 44927
ONEWEB-0690             
1 61598U 24188E   25232.28647569 -.00000172  00000+0 -52066-3 0  9996
2 61598  87.8793  80.9983 0002088  65.6737 294.4609 13.11413828 43308
ONEWEB-0691             
1 61599U 24188F   25232.28140409  .00000101  00000+0  25012-3 0  9999
2 61599  87.8710  80.9745 0002086  90.4203 269.7164 13.11414691 43328
ONEWEB-0692             
1 61600U 24188G   25231.61504094 -.00000456  00000+0 -13221-2 0  9995
2 61600  87.8778  81.2020 0000829  72.7371 287.3848 13.11420020 44944
ONEWEB-0693             
1 61601U 24188H   25232.26030319  .00000029  00000+0  41292-4 0  9997
2 61601  87.9022  65.8091 0002448  73.3120 286.8280 13.17650323 44482
ONEWEB-0695             
1 61602U 24188J   25231.59129770  .00000142  00000+0  36353-3 0  9990
2 61602  87.8780  81.1928 0001213  95.5450 264.5816 13.11412200 44936
ONEWEB-0697             
1 61603U 24188K   25231.62353690 -.00000446  00000+0 -12949-2 0  9998
2 61603  87.8774  81.1787 0000950  67.5604 292.5625 13.11418010 44923
ONEWEB-0698             
1 61604U 24188L   25232.28817301 -.00000165  00000+0 -50024-3 0  9991
2 61604  87.8774  81.0592 0001517  45.7216 314.4037 13.11414147 43077
ONEWEB-0699             
1 61605U 24188M   25232.13789732  .00000395  00000+0  10948-2 0  9995
2 61605  87.8775  96.2976 0001239  65.3965 294.7291 13.10377504 42012
ONEWEB-0700             
1 61606U 24188N   25231.68141261  .00000440  00000+0  12234-2 0  9995
2 61606  87.8747  96.2796 0001081  93.3633 266.7618 13.10375802 43810
ONEWEB-0701             
1 61607U 24188P   25231.69800706  .00000630  00000+0  17697-2 0  9992
2 61607  87.8765  96.3921 0000994  59.0787 301.0438 13.10373024 43821
ONEWEB-0702             
1 61608U 24188Q   25231.64729446  .00000576  00000+0  15883-2 0  9993
2 61608  87.8707  81.1307 0000789  85.1772 274.9446 13.11416939 44961
